HAWK-8C                 
1 59449U 24066H   26068.47383543  .00002400  00000+0  21518-3 0  9993
2 59449  45.6068  72.8656 0003935 260.2975  99.7462 14.98770227104860
STARLINK-36182          
1 67192U 25304A   26068.68352787  .00003262  00000+0  28104-3 0  9997
2 67192  70.0026 174.4842 0003805 265.7123  94.3601 14.98330411 13858
